{
 "type": "FeatureCollection",
 "meta": {
  "changed_at": "2026-09-21T19:00:19Z",
  "attribution": "© OpenStreetMap contributors (ODbL)",
  "source": "Overpass API",
  "query": "[out:json][timeout:60];\nrel(id:2029967,5245330,5245324);\nout body;\n(\n  way(r);\n  way[\"name\"~\"Ciclovia (do )?Rio Pinheiros\",i](-23.74,-46.78,-23.5,-46.65);\n);\nout meta geom;\n"
 },
 "features": [
  {
   "type": "Feature",
   "id": "way/51388704",
   "properties": {
    "way": 51388704,
    "role": "trunk",
    "length_m": 3441,
    "edited_at": "2023-02-15T21:00:58Z",
    "tags": {
     "bicycle": "designated",
     "bicycle:conditional": "yes @ (05:30-18:30)",
     "cyclability": "good",
     "foot": "yes",
     "highway": "cycleway",
     "name": "Ciclovia do Rio Pinheiros",
     "oneway": "no",
     "segregated": "yes",
     "source": "Shapefile CET 2021",
     "surface": "paved",
     "temporary:access": "no @ (2021-08-18 - 2021-12-31)"
    }
   },
   "geometry": {
    "type": "LineString",
    "coordinates": [
     [
      -46.7342413,
      -23.5456989
     ],
     [
      -46.7346202,
      -23.5453523
     ],
     [
      -46.7348411,
      -23.5450482
     ],
     [
      -46.7354956,
      -23.5442811
     ],
     [
      -46.7357316,
      -23.5440548
     ],
     [
      -46.7386713,
      -23.541409
     ],
     [
      -46.7416968,
      -23.538773
     ],
     [
      -46.7433276,
      -23.5372877
     ],
     [
      -46.7449906,
      -23.5358418
     ],
     [
      -46.7466858,
      -23.5343171
     ],
     [
      -46.7476513,
      -23.5332843
     ],
     [
      -46.7479947,
      -23.5326646
     ],
     [
      -46.7482414,
      -23.53174
     ],
     [
      -46.7483208,
      -23.5313367
     ],
     [
      -46.7483495,
      -23.5309813
     ],
     [
      -46.7483796,
      -23.5303224
     ],
     [
      -46.7483938,
      -23.5297072
     ],
     [
      -46.7484097,
      -23.5290204
     ],
     [
      -46.7484313,
      -23.52818
     ],
     [
      -46.7484442,
      -23.5276592
     ],
     [
      -46.74847,
      -23.5273791
     ],
     [
      -46.7485517,
      -23.5271621
     ],
     [
      -46.7486937,
      -23.5269017
     ],
     [
      -46.748612,
      -23.5266689
     ],
     [
      -46.7485948,
      -23.5264598
     ],
     [
      -46.7486421,
      -23.5261757
     ],
     [
      -46.7485733,
      -23.5259271
     ],
     [
      -46.7483968,
      -23.5257733
     ],
     [
      -46.7481817,
      -23.5256707
     ],
     [
      -46.7480655,
      -23.525572
     ],
     [
      -46.7480655,
      -23.5254103
     ],
     [
      -46.748031,
      -23.5245817
     ],
     [
      -46.7479278,
      -23.5239859
     ],
     [
      -46.7477642,
      -23.5233901
     ],
     [
      -46.747179,
      -23.5217408
     ],
     [
      -46.7465895,
      -23.5204703
     ]
    ]
   }
  },
  {
   "type": "Feature",
   "id": "way/51392253",
   "properties": {
    "way": 51392253,
    "role": "trunk",
    "length_m": 6982,
    "edited_at": "2026-04-20T15:09:30Z",
    "tags": {
     "bicycle": "designated",
     "bicycle:conditional": "yes @ (05:30-18:30)",
     "cyclability": "good",
     "foot": "yes",
     "highway": "cycleway",
     "name": "Ciclovia do Rio Pinheiros",
     "oneway": "no",
     "segregated": "yes",
     "source": "Shapefile CET 2021",
     "surface": "paved",
     "temporary:access": "no @ (2021-08-18 - 2021-12-31)"
    }
   },
   "geometry": {
    "type": "LineString",
    "coordinates": [
     [
      -46.6930147,
      -23.5940275
     ],
     [
      -46.6931089,
      -23.5940677
     ],
     [
      -46.6931404,
      -23.594088
     ],
     [
      -46.6931565,
      -23.5941028
     ],
     [
      -46.6931766,
      -23.594131
     ],
     [
      -46.6931811,
      -23.5941556
     ],
     [
      -46.6931994,
      -23.594571
     ],
     [
      -46.6931994,
      -23.5946607
     ],
     [
      -46.6931929,
      -23.5947455
     ],
     [
      -46.6931656,
      -23.5948503
     ],
     [
      -46.6931552,
      -23.5948838
     ],
     [
      -46.6931328,
      -23.5949157
     ],
     [
      -46.6931034,
      -23.5949377
     ],
     [
      -46.6930828,
      -23.5949483
     ],
     [
      -46.6929861,
      -23.5949764
     ],
     [
      -46.6929423,
      -23.5949958
     ],
     [
      -46.692912,
      -23.5950182
     ],
     [
      -46.6928836,
      -23.5950515
     ],
     [
      -46.6928615,
      -23.5950995
     ],
     [
      -46.6928541,
      -23.5951449
     ],
     [
      -46.6928588,
      -23.5955345
     ],
     [
      -46.6928949,
      -23.5959321
     ],
     [
      -46.6929074,
      -23.595964
     ],
     [
      -46.6929431,
      -23.595976
     ],
     [
      -46.6929878,
      -23.595977
     ],
     [
      -46.6935951,
      -23.595816
     ],
     [
      -46.6936467,
      -23.5958037
     ],
     [
      -46.6936917,
      -23.5958004
     ],
     [
      -46.6937194,
      -23.5958049
     ],
     [
      -46.6937486,
      -23.595824
     ],
     [
      -46.6937734,
      -23.5958571
     ],
     [
      -46.6938405,
      -23.5960218
     ],
     [
      -46.6938693,
      -23.5960517
     ],
     [
      -46.6939875,
      -23.5961788
     ],
     [
      -46.6943437,
      -23.5972257
     ],
     [
      -46.6947159,
      -23.5983524
     ],
     [
      -46.6952477,
      -23.5998411
     ],
     [
      -46.6954561,
      -23.6004244
     ],
     [
      -46.6958883,
      -23.6016713
     ],
     [
      -46.6962622,
      -23.6027888
     ],
     [
      -46.6969107,
      -23.6046296
     ],
     [
      -46.6970896,
      -23.6051626
     ],
     [
      -46.6972112,
      -23.6054996
     ],
     [
      -46.6977301,
      -23.606937
     ],
     [
      -46.6979677,
      -23.6078239
     ],
     [
      -46.6981506,
      -23.6086879
     ],
     [
      -46.6983694,
      -23.609573
     ],
     [
      -46.6988277,
      -23.6118677
     ],
     [
      -46.6991318,
      -23.6133102
     ],
     [
      -46.6993379,
      -23.6142876
     ],
     [
      -46.6995666,
      -23.61538
     ],
     [
      -46.6996682,
      -23.6158399
     ],
     [
      -46.6997735,
      -23.6163342
     ],
     [
      -46.6998001,
      -23.6164521
     ],
     [
      -46.6998293,
      -23.6165608
     ],
     [
      -46.6998633,
      -23.616687
     ],
     [
      -46.6999144,
      -23.6168383
     ],
     [
      -46.6999804,
      -23.6169871
     ],
     [
      -46.700049,
      -23.6171444
     ],
     [
      -46.7002078,
      -23.6174912
     ],
     [
      -46.7002883,
      -23.6176883
     ],
     [
      -46.7003058,
      -23.6177311
     ],
     [
      -46.7003601,
      -23.6178813
     ],
     [
      -46.7004005,
      -23.6180053
     ],
     [
      -46.7004329,
      -23.618119
     ],
     [
      -46.7004881,
      -23.6183499
     ],
     [
      -46.7005218,
      -23.6185251
     ],
     [
      -46.7005709,
      -23.6189109
     ],
     [
      -46.7005856,
      -23.6190301
     ],
     [
      -46.700609,
      -23.6192046
     ],
     [
      -46.7006527,
      -23.6194869
     ],
     [
      -46.7006674,
      -23.6195828
     ],
     [
      -46.7006943,
      -23.6196973
     ],
     [
      -46.7007343,
      -23.6198144
     ],
     [
      -46.7007908,
      -23.6199477
     ],
     [
      -46.7009305,
      -23.6203284
     ],
     [
      -46.7010073,
      -23.6205053
     ],
     [
      -46.7011033,
      -23.6206257
     ],
     [
      -46.7012277,
      -23.6208334
     ],
     [
      -46.7013455,
      -23.6210196
     ],
     [
      -46.7014497,
      -23.6211628
     ],
     [
      -46.7015651,
      -23.6213102
     ],
     [
      -46.7017118,
      -23.6214842
     ],
     [
      -46.7018926,
      -23.621684
     ],
     [
      -46.7021738,
      -23.6219588
     ],
     [
      -46.7024212,
      -23.6221604
     ],
     [
      -46.702908,
      -23.6225451
     ],
     [
      -46.7032564,
      -23.6227984
     ],
     [
      -46.7035348,
      -23.623006
     ],
     [
      -46.7038802,
      -23.6232232
     ],
     [
      -46.7040277,
      -23.6233079
     ],
     [
      -46.7044051,
      -23.6235085
     ],
     [
      -46.7045489,
      -23.6235706
     ],
     [
      -46.7049124,
      -23.623702
     ],
     [
      -46.7060372,
      -23.6240608
     ],
     [
      -46.7078275,
      -23.6246335
     ],
     [
      -46.7082158,
      -23.62477
     ],
     [
      -46.7084751,
      -23.6248726
     ],
     [
      -46.7088073,
      -23.6250136
     ],
     [
      -46.7091309,
      -23.625175
     ],
     [
      -46.7095084,
      -23.6253737
     ],
     [
      -46.7098542,
      -23.6255829
     ],
     [
      -46.7101324,
      -23.6257565
     ],
     [
      -46.7104105,
      -23.6259375
     ],
     [
      -46.7106373,
      -23.6261088
     ],
     [
      -46.7107806,
      -23.6262302
     ],
     [
      -46.7111437,
      -23.626538
     ],
     [
      -46.7118222,
      -23.627157
     ],
     [
      -46.7122448,
      -23.6276069
     ],
     [
      -46.712385,
      -23.6277438
     ],
     [
      -46.7127803,
      -23.6281674
     ],
     [
      -46.7132085,
      -23.6286145
     ],
     [
      -46.7137725,
      -23.6292034
     ],
     [
      -46.7140647,
      -23.6295085
     ],
     [
      -46.7167193,
      -23.6323447
     ],
     [
      -46.7189124,
      -23.6347811
     ],
     [
      -46.7198214,
      -23.6357213
     ],
     [
      -46.7213589,
      -23.6373684
     ],
     [
      -46.7228985,
      -23.6390377
     ],
     [
      -46.7235414,
      -23.6397244
     ],
     [
      -46.723892,
      -23.640114
     ],
     [
      -46.7241453,
      -23.6404598
     ],
     [
      -46.7243985,
      -23.6408348
     ],
     [
      -46.7247102,
      -23.6413169
     ],
     [
      -46.7249294,
      -23.6417455
     ],
     [
      -46.7254762,
      -23.6429094
     ],
     [
      -46.7258092,
      -23.6437121
     ],
     [
      -46.7259678,
      -23.6441159
     ],
     [
      -46.7259981,
      -23.6442429
     ],
     [
      -46.7260263,
      -23.644365
     ],
     [
      -46.7260738,
      -23.64459
     ]
    ]
   }
  },
  {
   "type": "Feature",
   "id": "way/124962796",
   "properties": {
    "way": 124962796,
    "role": "link",
    "length_m": 3,
    "edited_at": "2022-02-07T11:38:03Z",
    "tags": {
     "bicycle": "designated",
     "foot": "designated",
     "highway": "cycleway",
     "oneway": "no",
     "segregated": "no",
     "source": "Shapefile CET 2021",
     "surface": "concrete"
    }
   },
   "geometry": {
    "type": "LineString",
    "coordinates": [
     [
      -46.6896619,
      -23.5855606
     ],
     [
      -46.6896393,
      -23.5855797
     ]
    ]
   }
  },
  {
   "type": "Feature",
   "id": "way/126052486",
   "properties": {
    "way": 126052486,
    "role": "access",
    "length_m": 654,
    "edited_at": "2022-10-16T16:02:34Z",
    "tags": {
     "bicycle": "designated",
     "foot": "yes",
     "highway": "cycleway",
     "name": "Acesso à Ciclovia do Rio Pinheiros",
     "oneway": "no",
     "source": "aerial imagery",
     "surface": "paved",
     "temporary:access": "no @ (2021-08-18 - 2021-12-31)"
    }
   },
   "geometry": {
    "type": "LineString",
    "coordinates": [
     [
      -46.6839002,
      -23.6945388
     ],
     [
      -46.6839482,
      -23.6945222
     ],
     [
      -46.6839909,
      -23.6945616
     ],
     [
      -46.6845419,
      -23.6950524
     ],
     [
      -46.6845329,
      -23.6951087
     ],
     [
      -46.6848446,
      -23.6953888
     ],
     [
      -46.6849164,
      -23.695456
     ],
     [
      -46.6850014,
      -23.6955491
     ],
     [
      -46.6851269,
      -23.6957305
     ],
     [
      -46.6851651,
      -23.6958122
     ],
     [
      -46.6851902,
      -23.6958893
     ],
     [
      -46.6851969,
      -23.6959581
     ],
     [
      -46.6851844,
      -23.6960435
     ],
     [
      -46.6851362,
      -23.6961304
     ],
     [
      -46.6850482,
      -23.6962163
     ],
     [
      -46.6848226,
      -23.6963902
     ],
     [
      -46.6847061,
      -23.6964797
     ],
     [
      -46.6846406,
      -23.6966055
     ],
     [
      -46.6846169,
      -23.696778
     ],
     [
      -46.6846242,
      -23.6969535
     ],
     [
      -46.6846485,
      -23.6970822
     ],
     [
      -46.6846926,
      -23.6971913
     ],
     [
      -46.6847965,
      -23.697334
     ],
     [
      -46.6853204,
      -23.6979484
     ],
     [
      -46.6853909,
      -23.69804
     ],
     [
      -46.6854381,
      -23.6981485
     ],
     [
      -46.6856428,
      -23.6990687
     ],
     [
      -46.6856889,
      -23.6991679
     ],
     [
      -46.6857389,
      -23.6992155
     ],
     [
      -46.685796,
      -23.6992574
     ],
     [
      -46.6858598,
      -23.6992837
     ],
     [
      -46.685942,
      -23.6992773
     ]
    ]
   }
  },
  {
   "type": "Feature",
   "id": "way/150576541",
   "properties": {
    "way": 150576541,
    "role": "access",
    "length_m": 24,
    "edited_at": "2023-12-17T21:45:31Z",
    "tags": {
     "bicycle": "yes",
     "bicycle:conditional": "no @ (18:30-05:30)",
     "foot": "yes",
     "highway": "cycleway",
     "name": "Acesso à Ciclovia do Rio Pinheiros",
     "oneway": "no",
     "segregated": "yes",
     "surface": "paved"
    }
   },
   "geometry": {
    "type": "LineString",
    "coordinates": [
     [
      -46.6930147,
      -23.5940275
     ],
     [
      -46.6929303,
      -23.5939889
     ],
     [
      -46.6929272,
      -23.5939474
     ],
     [
      -46.6929075,
      -23.593985
     ],
     [
      -46.6929076,
      -23.5939355
     ]
    ]
   }
  },
  {
   "type": "Feature",
   "id": "way/150576542",
   "properties": {
    "way": 150576542,
    "role": "access",
    "length_m": 84,
    "edited_at": "2025-12-10T17:54:10Z",
    "tags": {
     "bicycle": "dismount",
     "bicycle:conditional": "no @ (18:30-05:30)",
     "bridge": "viaduct",
     "foot": "yes",
     "highway": "cycleway",
     "layer": "3",
     "name": "Acesso à Ciclovia do Rio Pinheiros",
     "oneway": "no",
     "segregated": "yes",
     "surface": "concrete"
    }
   },
   "geometry": {
    "type": "LineString",
    "coordinates": [
     [
      -46.6921296,
      -23.5939115
     ],
     [
      -46.692147,
      -23.5939107
     ],
     [
      -46.6921478,
      -23.5939572
     ],
     [
      -46.6929076,
      -23.5939355
     ]
    ]
   }
  },
  {
   "type": "Feature",
   "id": "way/150576587",
   "properties": {
    "way": 150576587,
    "role": "access",
    "length_m": 64,
    "edited_at": "2022-02-26T13:45:07Z",
    "tags": {
     "bicycle": "yes",
     "bridge": "yes",
     "foot": "yes",
     "highway": "cycleway",
     "layer": "1",
     "lit": "yes",
     "name": "Acesso à Ciclovia do Rio Pinheiros",
     "oneway": "no",
     "segregated": "yes",
     "source": "https://foursquare.com/v/ponte-cidade-universit%C3%A1ria/4d545bdb48ea6ea8817ac9a3/photos",
     "surface": "metal"
    }
   },
   "geometry": {
    "type": "LineString",
    "coordinates": [
     [
      -46.7114987,
      -23.5580397
     ],
     [
      -46.7115351,
      -23.5580204
     ],
     [
      -46.7115616,
      -23.55806
     ],
     [
      -46.7116987,
      -23.5579811
     ],
     [
      -46.7116799,
      -23.5579559
     ],
     [
      -46.7115653,
      -23.5580204
     ],
     [
      -46.7115474,
      -23.5579953
     ],
     [
      -46.711668,
      -23.557929
     ],
     [
      -46.7116511,
      -23.5579048
     ]
    ]
   }
  },
  {
   "type": "Feature",
   "id": "way/218402980",
   "properties": {
    "way": 218402980,
    "role": "link",
    "length_m": 372,
    "edited_at": "2016-10-18T14:14:25Z",
    "tags": {
     "bicycle": "designated",
     "highway": "cycleway",
     "oneway": "yes"
    }
   },
   "geometry": {
    "type": "LineString",
    "coordinates": [
     [
      -46.6887716,
      -23.5861674
     ],
     [
      -46.6887952,
      -23.5861663
     ],
     [
      -46.6888524,
      -23.5861638
     ],
     [
      -46.6890884,
      -23.5861983
     ],
     [
      -46.6892977,
      -23.5862917
     ],
     [
      -46.6894425,
      -23.5864195
     ],
     [
      -46.6895391,
      -23.5865277
     ],
     [
      -46.6895551,
      -23.5866555
     ],
     [
      -46.6895444,
      -23.5867489
     ],
     [
      -46.6894532,
      -23.5868865
     ],
     [
      -46.6893459,
      -23.5870144
     ],
     [
      -46.6892172,
      -23.5872208
     ],
     [
      -46.6891957,
      -23.5873437
     ],
     [
      -46.6891689,
      -23.5875846
     ],
     [
      -46.6892065,
      -23.5877567
     ],
     [
      -46.6892762,
      -23.5879091
     ],
     [
      -46.6893835,
      -23.5880271
     ],
     [
      -46.689523,
      -23.5881353
     ],
     [
      -46.6897054,
      -23.5881795
     ],
     [
      -46.6902794,
      -23.5882649
     ]
    ]
   }
  },
  {
   "type": "Feature",
   "id": "way/297200000",
   "properties": {
    "way": 297200000,
    "role": "west",
    "length_m": 6152,
    "edited_at": "2025-03-20T02:03:04Z",
    "tags": {
     "bicycle": "designated",
     "foot": "yes",
     "highway": "cycleway",
     "horse": "no",
     "name": "Ciclovia Parque Bruno Covas",
     "oneway": "no",
     "surface": "paved"
    }
   },
   "geometry": {
    "type": "LineString",
    "coordinates": [
     [
      -46.6918923,
      -23.586961
     ],
     [
      -46.6919379,
      -23.5871444
     ],
     [
      -46.6922874,
      -23.5881208
     ],
     [
      -46.6925641,
      -23.5890588
     ],
     [
      -46.6928281,
      -23.5896971
     ],
     [
      -46.6931119,
      -23.5903537
     ],
     [
      -46.6934767,
      -23.5915041
     ],
     [
      -46.6940923,
      -23.5932041
     ],
     [
      -46.694088,
      -23.5937035
     ],
     [
      -46.6944064,
      -23.5945212
     ],
     [
      -46.6944257,
      -23.5945411
     ],
     [
      -46.6944474,
      -23.5945564
     ],
     [
      -46.694599,
      -23.5946088
     ],
     [
      -46.6946671,
      -23.5946478
     ],
     [
      -46.6950833,
      -23.5954672
     ],
     [
      -46.6951627,
      -23.5956332
     ],
     [
      -46.6953001,
      -23.5959204
     ],
     [
      -46.6955048,
      -23.5964311
     ],
     [
      -46.6956788,
      -23.5968573
     ],
     [
      -46.695749,
      -23.5972063
     ],
     [
      -46.6957153,
      -23.5974865
     ],
     [
      -46.6956962,
      -23.5977106
     ],
     [
      -46.6957391,
      -23.5978774
     ],
     [
      -46.6958309,
      -23.5980141
     ],
     [
      -46.6959365,
      -23.5981661
     ],
     [
      -46.6959797,
      -23.598268
     ],
     [
      -46.6961027,
      -23.5985639
     ],
     [
      -46.6961298,
      -23.5987055
     ],
     [
      -46.6961652,
      -23.5988282
     ],
     [
      -46.6963021,
      -23.5990899
     ],
     [
      -46.6963561,
      -23.5992014
     ],
     [
      -46.6963781,
      -23.599302
     ],
     [
      -46.6964138,
      -23.5994991
     ],
     [
      -46.6965483,
      -23.5998712
     ],
     [
      -46.6965789,
      -23.5999625
     ],
     [
      -46.6965935,
      -23.6000286
     ],
     [
      -46.6966015,
      -23.600112
     ],
     [
      -46.6965881,
      -23.6002605
     ],
     [
      -46.6965814,
      -23.6003604
     ],
     [
      -46.6965806,
      -23.600445
     ],
     [
      -46.6965921,
      -23.6005246
     ],
     [
      -46.6967375,
      -23.6008995
     ],
     [
      -46.6970472,
      -23.6017079
     ],
     [
      -46.6971801,
      -23.6019569
     ],
     [
      -46.6973321,
      -23.6025087
     ],
     [
      -46.6973697,
      -23.6026602
     ],
     [
      -46.6974946,
      -23.6030476
     ],
     [
      -46.6980277,
      -23.6045673
     ],
     [
      -46.6987368,
      -23.6067293
     ],
     [
      -46.6988662,
      -23.6071006
     ],
     [
      -46.6992716,
      -23.6087827
     ],
     [
      -46.6994187,
      -23.6095173
     ],
     [
      -46.6995256,
      -23.6100514
     ],
     [
      -46.6995918,
      -23.6103565
     ],
     [
      -46.6996434,
      -23.6106222
     ],
     [
      -46.6996517,
      -23.6106679
     ],
     [
      -46.6996783,
      -23.6108142
     ],
     [
      -46.6998185,
      -23.611407
     ],
     [
      -46.6999914,
      -23.6116813
     ],
     [
      -46.7000848,
      -23.6120603
     ],
     [
      -46.7001298,
      -23.6123016
     ],
     [
      -46.7001564,
      -23.6124333
     ],
     [
      -46.7001835,
      -23.6124905
     ],
     [
      -46.7002171,
      -23.6125592
     ],
     [
      -46.7002395,
      -23.6126302
     ],
     [
      -46.7003572,
      -23.6132719
     ],
     [
      -46.7005071,
      -23.6140656
     ],
     [
      -46.7005648,
      -23.6144475
     ],
     [
      -46.7005366,
      -23.6147194
     ],
     [
      -46.7008906,
      -23.6162543
     ],
     [
      -46.7009301,
      -23.6165912
     ],
     [
      -46.7010091,
      -23.6178282
     ],
     [
      -46.701167,
      -23.6184252
     ],
     [
      -46.7015089,
      -23.6192371
     ],
     [
      -46.70162,
      -23.6194351
     ],
     [
      -46.7019605,
      -23.6200165
     ],
     [
      -46.7021532,
      -23.6204299
     ],
     [
      -46.702925,
      -23.6212582
     ],
     [
      -46.703562,
      -23.6218268
     ],
     [
      -46.7037437,
      -23.6219708
     ],
     [
      -46.703994,
      -23.6221655
     ],
     [
      -46.7044563,
      -23.6224098
     ],
     [
      -46.7049912,
      -23.6226325
     ],
     [
      -46.7054734,
      -23.6228156
     ],
     [
      -46.7060833,
      -23.6229929
     ],
     [
      -46.7083781,
      -23.6237147
     ],
     [
      -46.7093806,
      -23.6241054
     ],
     [
      -46.7105356,
      -23.6247205
     ],
     [
      -46.7113242,
      -23.6253173
     ],
     [
      -46.7116709,
      -23.6255797
     ],
     [
      -46.7127865,
      -23.626665
     ],
     [
      -46.7140397,
      -23.6279905
     ],
     [
      -46.7142574,
      -23.6282207
     ],
     [
      -46.714558,
      -23.6285558
     ],
     [
      -46.7147923,
      -23.6288082
     ],
     [
      -46.7155584,
      -23.6296939
     ],
     [
      -46.7169222,
      -23.6312159
     ],
     [
      -46.7178126,
      -23.6321791
     ],
     [
      -46.7182812,
      -23.6326909
     ],
     [
      -46.7185561,
      -23.6329244
     ],
     [
      -46.7187105,
      -23.6329467
     ],
     [
      -46.7187707,
      -23.6329928
     ]
    ]
   }
  },
  {
   "type": "Feature",
   "id": "way/321637788",
   "properties": {
    "way": 321637788,
    "role": "west",
    "length_m": 7,
    "edited_at": "2023-02-06T19:16:09Z",
    "tags": {
     "foot": "yes",
     "highway": "cycleway",
     "lit": "yes",
     "name": "Passarela Friedrich Bayer"
    }
   },
   "geometry": {
    "type": "LineString",
    "coordinates": [
     [
      -46.7214509,
      -23.6580452
     ],
     [
      -46.7214653,
      -23.6580305
     ],
     [
      -46.7214928,
      -23.6580004
     ]
    ]
   }
  },
  {
   "type": "Feature",
   "id": "way/321637789",
   "properties": {
    "way": 321637789,
    "role": "west",
    "length_m": 150,
    "edited_at": "2025-03-14T16:37:45Z",
    "tags": {
     "foot": "yes",
     "highway": "cycleway",
     "name": "Acesso à Ciclovia do Rio Pinheiros (Margem Oeste)",
     "oneway": "no"
    }
   },
   "geometry": {
    "type": "LineString",
    "coordinates": [
     [
      -46.7221241,
      -23.6573699
     ],
     [
      -46.7221825,
      -23.6573136
     ],
     [
      -46.72219,
      -23.6572981
     ],
     [
      -46.722193,
      -23.6572431
     ],
     [
      -46.7221403,
      -23.6570615
     ],
     [
      -46.7220383,
      -23.6567245
     ],
     [
      -46.7220402,
      -23.656244
     ],
     [
      -46.7220625,
      -23.6561387
     ],
     [
      -46.7220769,
      -23.6560703
     ]
    ]
   }
  },
  {
   "type": "Feature",
   "id": "way/321637790",
   "properties": {
    "way": 321637790,
    "role": "west",
    "length_m": 124,
    "edited_at": "2025-03-20T02:03:04Z",
    "tags": {
     "access": "yes",
     "bicycle": "designated",
     "foot": "yes",
     "highway": "cycleway",
     "horse": "no",
     "motor_vehicle": "no",
     "name": "Ciclovia do Rio Pinheiros (Margem Oeste)",
     "oneway": "no",
     "surface": "asphalt"
    }
   },
   "geometry": {
    "type": "LineString",
    "coordinates": [
     [
      -46.7219294,
      -23.6557044
     ],
     [
      -46.721847,
      -23.655693
     ],
     [
      -46.7218096,
      -23.6556342
     ],
     [
      -46.7217664,
      -23.6556181
     ],
     [
      -46.7217594,
      -23.655585
     ],
     [
      -46.7217699,
      -23.6555326
     ],
     [
      -46.721835,
      -23.6554733
     ],
     [
      -46.7220908,
      -23.6552612
     ],
     [
      -46.7221261,
      -23.6552097
     ],
     [
      -46.7221612,
      -23.6551306
     ],
     [
      -46.7221744,
      -23.6550601
     ],
     [
      -46.7221686,
      -23.6550175
     ],
     [
      -46.7220012,
      -23.6549225
     ]
    ]
   }
  },
  {
   "type": "Feature",
   "id": "way/337854406",
   "properties": {
    "way": 337854406,
    "role": "link",
    "length_m": 220,
    "edited_at": "2022-02-07T11:38:03Z",
    "tags": {
     "bicycle": "designated",
     "cycleway:left": "lane",
     "highway": "tertiary",
     "lanes": "1",
     "lit": "yes",
     "maxspeed": "50",
     "name": "Rua Professor Artur Ramos",
     "oneway": "yes",
     "oneway:bicycle": "no",
     "sidewalk": "both",
     "source": "survey;Shapefile CET 2021",
     "surface": "asphalt"
    }
   },
   "geometry": {
    "type": "LineString",
    "coordinates": [
     [
      -46.6849219,
      -23.5813617
     ],
     [
      -46.685012,
      -23.5814196
     ],
     [
      -46.6852571,
      -23.5815462
     ],
     [
      -46.6857308,
      -23.581791
     ],
     [
      -46.6867268,
      -23.5823058
     ],
     [
      -46.6867973,
      -23.5823422
     ]
    ]
   }
  },
  {
   "type": "Feature",
   "id": "way/337854415",
   "properties": {
    "way": 337854415,
    "role": "link",
    "length_m": 30,
    "edited_at": "2016-10-18T13:20:57Z",
    "tags": {
     "bicycle": "yes",
     "foot": "yes",
     "highway": "footway",
     "width": "4"
    }
   },
   "geometry": {
    "type": "LineString",
    "coordinates": [
     [
      -46.6887716,
      -23.5861674
     ],
     [
      -46.6887517,
      -23.5860601
     ],
     [
      -46.6887494,
      -23.5859676
     ],
     [
      -46.6887836,
      -23.5859043
     ]
    ]
   }
  },
  {
   "type": "Feature",
   "id": "way/351476629",
   "properties": {
    "way": 351476629,
    "role": "west",
    "length_m": 445,
    "edited_at": "2025-07-03T03:18:49Z",
    "tags": {
     "foot": "yes",
     "highway": "cycleway",
     "name": "Ciclovia dos Trabalhadores"
    }
   },
   "geometry": {
    "type": "LineString",
    "coordinates": [
     [
      -46.7214509,
      -23.6580452
     ],
     [
      -46.7215495,
      -23.6582338
     ],
     [
      -46.7218155,
      -23.6589024
     ],
     [
      -46.7219425,
      -23.659257
     ],
     [
      -46.7220544,
      -23.6596887
     ],
     [
      -46.7222196,
      -23.6603589
     ],
     [
      -46.7223121,
      -23.6607016
     ],
     [
      -46.7224092,
      -23.6610382
     ],
     [
      -46.7225627,
      -23.6617352
     ],
     [
      -46.7225777,
      -23.6618176
     ],
     [
      -46.7225824,
      -23.6618427
     ],
     [
      -46.7225917,
      -23.6618753
     ],
     [
      -46.7225914,
      -23.6618818
     ],
     [
      -46.7225868,
      -23.6618873
     ],
     [
      -46.7225801,
      -23.6618892
     ]
    ]
   }
  },
  {
   "type": "Feature",
   "id": "way/448326478",
   "properties": {
    "way": 448326478,
    "role": "access",
    "length_m": 183,
    "edited_at": "2022-12-31T12:19:14Z",
    "tags": {
     "bicycle": "designated",
     "foot": "designated",
     "highway": "cycleway",
     "name": "Ciclovia Rio Pinheiros",
     "oneway": "no",
     "segregated": "yes",
     "source": "Shapefile CET 2021",
     "surface": "concrete"
    }
   },
   "geometry": {
    "type": "LineString",
    "coordinates": [
     [
      -46.6897268,
      -23.5866848
     ],
     [
      -46.6897207,
      -23.5867335
     ],
     [
      -46.6897056,
      -23.5867805
     ],
     [
      -46.6896853,
      -23.5868251
     ],
     [
      -46.6896508,
      -23.5868657
     ],
     [
      -46.6896012,
      -23.5869176
     ],
     [
      -46.6895534,
      -23.5869686
     ],
     [
      -46.6894941,
      -23.5870213
     ],
     [
      -46.6894508,
      -23.5870692
     ],
     [
      -46.6893871,
      -23.5871584
     ],
     [
      -46.6893676,
      -23.5871989
     ],
     [
      -46.6893424,
      -23.5872743
     ],
     [
      -46.6893276,
      -23.5873376
     ],
     [
      -46.6893222,
      -23.587407
     ],
     [
      -46.6893177,
      -23.5874823
     ],
     [
      -46.6893239,
      -23.5875418
     ],
     [
      -46.6893539,
      -23.5876544
     ],
     [
      -46.6893818,
      -23.5877268
     ],
     [
      -46.6894304,
      -23.5877974
     ],
     [
      -46.6894764,
      -23.5878557
     ],
     [
      -46.6895305,
      -23.5879314
     ],
     [
      -46.6896227,
      -23.5880308
     ],
     [
      -46.6897144,
      -23.5881015
     ]
    ]
   }
  },
  {
   "type": "Feature",
   "id": "way/448328857",
   "properties": {
    "way": 448328857,
    "role": "access",
    "length_m": 252,
    "edited_at": "2022-12-31T12:19:14Z",
    "tags": {
     "bridge": "yes",
     "highway": "cycleway",
     "layer": "1",
     "name": "Acesso à Ciclovia do Rio Pinheiros",
     "oneway": "no",
     "source": "Shapefile CET 2021",
     "surface": "concrete"
    }
   },
   "geometry": {
    "type": "LineString",
    "coordinates": [
     [
      -46.6897144,
      -23.5881015
     ],
     [
      -46.6897742,
      -23.5881242
     ],
     [
      -46.6898453,
      -23.5881445
     ],
     [
      -46.6904129,
      -23.5882537
     ],
     [
      -46.6911647,
      -23.5881215
     ],
     [
      -46.6912118,
      -23.5881174
     ],
     [
      -46.6912345,
      -23.5881166
     ],
     [
      -46.6912447,
      -23.5882767
     ],
     [
      -46.6912572,
      -23.5883479
     ],
     [
      -46.691281,
      -23.5884622
     ],
     [
      -46.6913037,
      -23.5885581
     ],
     [
      -46.691418,
      -23.5889401
     ]
    ]
   }
  },
  {
   "type": "Feature",
   "id": "way/643976483",
   "properties": {
    "way": 643976483,
    "role": "access",
    "length_m": 39,
    "edited_at": "2022-12-31T12:19:14Z",
    "tags": {
     "foot": "no",
     "highway": "cycleway",
     "name": "Acesso à Ciclovia do Rio Pinheiros",
     "oneway": "no",
     "surface": "concrete"
    }
   },
   "geometry": {
    "type": "LineString",
    "coordinates": [
     [
      -46.6915981,
      -23.5891588
     ],
     [
      -46.6915314,
      -23.5891818
     ],
     [
      -46.6915019,
      -23.5891812
     ],
     [
      -46.6914831,
      -23.5891649
     ],
     [
      -46.691418,
      -23.5889401
     ]
    ]
   }
  },
  {
   "type": "Feature",
   "id": "way/669356196",
   "properties": {
    "way": 669356196,
    "role": "access",
    "length_m": 123,
    "edited_at": "2021-11-06T10:02:01Z",
    "tags": {
     "bridge": "yes",
     "highway": "cycleway",
     "layer": "4",
     "name": "Acesso a Ciclovia do Rio Pinheiros"
    }
   },
   "geometry": {
    "type": "LineString",
    "coordinates": [
     [
      -46.7197821,
      -23.6558127
     ],
     [
      -46.7196819,
      -23.6559218
     ],
     [
      -46.7196995,
      -23.655937
     ],
     [
      -46.7191453,
      -23.6564737
     ],
     [
      -46.7191593,
      -23.6564858
     ],
     [
      -46.7192996,
      -23.6563499
     ]
    ]
   }
  },
  {
   "type": "Feature",
   "id": "way/669356197",
   "properties": {
    "way": 669356197,
    "role": "access",
    "length_m": 147,
    "edited_at": "2022-02-16T13:48:52Z",
    "tags": {
     "bridge": "yes",
     "highway": "cycleway",
     "layer": "5",
     "name": "Acesso a Ciclovia do Rio Pinheiros",
     "oneway": "no"
    }
   },
   "geometry": {
    "type": "LineString",
    "coordinates": [
     [
      -46.7192996,
      -23.6563499
     ],
     [
      -46.7191762,
      -23.65626
     ],
     [
      -46.7191689,
      -23.6562238
     ],
     [
      -46.7190734,
      -23.6561656
     ],
     [
      -46.718759,
      -23.6559064
     ],
     [
      -46.718668,
      -23.6558424
     ],
     [
      -46.7181879,
      -23.655642
     ],
     [
      -46.7181394,
      -23.6555995
     ]
    ]
   }
  },
  {
   "type": "Feature",
   "id": "way/689657879",
   "properties": {
    "way": 689657879,
    "role": "west",
    "length_m": 31,
    "edited_at": "2022-09-10T21:51:08Z",
    "tags": {
     "foot": "yes",
     "highway": "cycleway",
     "name": "Acesso à Ciclovia do Rio Pinheiros (Margem Oeste)",
     "oneway": "no"
    }
   },
   "geometry": {
    "type": "LineString",
    "coordinates": [
     [
      -46.7188044,
      -23.6331921
     ],
     [
      -46.7186851,
      -23.6330582
     ],
     [
      -46.7187707,
      -23.6329928
     ]
    ]
   }
  },
  {
   "type": "Feature",
   "id": "way/841967007",
   "properties": {
    "way": 841967007,
    "role": "west",
    "length_m": 1516,
    "edited_at": "2025-03-20T02:03:04Z",
    "tags": {
     "access": "no",
     "bicycle": "yes",
     "foot": "yes",
     "highway": "cycleway",
     "lit": "no",
     "name": "Ciclovia dos Trabalhadores",
     "note": "Funcionamento das 07:00 ás 19:00",
     "oneway": "no"
    }
   },
   "geometry": {
    "type": "LineString",
    "coordinates": [
     [
      -46.7118828,
      -23.6654259
     ],
     [
      -46.711812,
      -23.6652888
     ],
     [
      -46.7117463,
      -23.6652286
     ],
     [
      -46.7116266,
      -23.6651267
     ],
     [
      -46.7114784,
      -23.6650095
     ],
     [
      -46.7112307,
      -23.6648366
     ],
     [
      -46.7112105,
      -23.6648104
     ],
     [
      -46.7111936,
      -23.664778
     ],
     [
      -46.7111852,
      -23.6647379
     ],
     [
      -46.7111953,
      -23.6646947
     ],
     [
      -46.7112189,
      -23.6646453
     ],
     [
      -46.7112846,
      -23.6645758
     ],
     [
      -46.7114794,
      -23.6643402
     ],
     [
      -46.7119242,
      -23.6637425
     ],
     [
      -46.7122946,
      -23.663326
     ],
     [
      -46.7127833,
      -23.6628202
     ],
     [
      -46.7132701,
      -23.662288
     ],
     [
      -46.7138917,
      -23.6615509
     ],
     [
      -46.7141346,
      -23.6612686
     ],
     [
      -46.7144488,
      -23.6609362
     ],
     [
      -46.7149894,
      -23.6605351
     ],
     [
      -46.7158205,
      -23.6599417
     ],
     [
      -46.7172503,
      -23.6589963
     ],
     [
      -46.7194396,
      -23.6576008
     ],
     [
      -46.7197117,
      -23.657446
     ],
     [
      -46.7198006,
      -23.6574095
     ],
     [
      -46.7198865,
      -23.6573983
     ],
     [
      -46.7200521,
      -23.6573983
     ],
     [
      -46.7204569,
      -23.6574264
     ],
     [
      -46.7209169,
      -23.6575163
     ],
     [
      -46.7210579,
      -23.6575668
     ],
     [
      -46.7211438,
      -23.6576202
     ],
     [
      -46.7212143,
      -23.657682
     ],
     [
      -46.7214509,
      -23.6580452
     ]
    ]
   }
  },
  {
   "type": "Feature",
   "id": "way/933975898",
   "properties": {
    "way": 933975898,
    "role": "link",
    "length_m": 2,
    "edited_at": "2022-02-07T11:38:03Z",
    "tags": {
     "bicycle": "designated",
     "foot": "designated",
     "highway": "cycleway",
     "oneway": "no",
     "segregated": "yes",
     "source": "Shapefile CET 2021"
    }
   },
   "geometry": {
    "type": "LineString",
    "coordinates": [
     [
      -46.6891264,
      -23.5860123
     ],
     [
      -46.6891147,
      -23.5860222
     ]
    ]
   }
  },
  {
   "type": "Feature",
   "id": "way/965529717",
   "properties": {
    "way": 965529717,
    "role": "west",
    "length_m": 3,
    "edited_at": "2023-02-06T19:16:12Z",
    "tags": {
     "foot": "yes",
     "highway": "cycleway",
     "lit": "yes",
     "name": "Passarela Friedrich Bayer"
    }
   },
   "geometry": {
    "type": "LineString",
    "coordinates": [
     [
      -46.7221079,
      -23.657387
     ],
     [
      -46.7221241,
      -23.6573699
     ]
    ]
   }
  },
  {
   "type": "Feature",
   "id": "way/965529718",
   "properties": {
    "way": 965529718,
    "role": "west",
    "length_m": 28,
    "edited_at": "2023-02-06T19:16:11Z",
    "tags": {
     "alt_name": "Ponte Friedrich Bayer",
     "bridge": "yes",
     "foot": "yes",
     "highway": "cycleway",
     "layer": "2",
     "name": "Ciclopassarela Friedrich Bayer",
     "oneway": "no",
     "segregated": "yes",
     "surface": "concrete",
     "video": "https://www.youtube.com/watch?v=zrlktxHRauI"
    }
   },
   "geometry": {
    "type": "LineString",
    "coordinates": [
     [
      -46.7214928,
      -23.6580004
     ],
     [
      -46.7216744,
      -23.6578164
     ]
    ]
   }
  },
  {
   "type": "Feature",
   "id": "way/980544508",
   "properties": {
    "way": 980544508,
    "role": "west",
    "length_m": 31,
    "edited_at": "2023-02-06T19:16:11Z",
    "tags": {
     "alt_name": "Ponte Friedrich Bayer",
     "bridge": "movable",
     "bridge:movable": "swing",
     "foot": "yes",
     "highway": "cycleway",
     "layer": "2",
     "name": "Ciclopassarela Friedrich Bayer",
     "oneway": "no",
     "segregated": "yes",
     "surface": "concrete",
     "video": "https://www.youtube.com/watch?v=zrlktxHRauI"
    }
   },
   "geometry": {
    "type": "LineString",
    "coordinates": [
     [
      -46.7216744,
      -23.6578164
     ],
     [
      -46.7218755,
      -23.6576127
     ]
    ]
   }
  },
  {
   "type": "Feature",
   "id": "way/980544509",
   "properties": {
    "way": 980544509,
    "role": "west",
    "length_m": 34,
    "edited_at": "2023-02-06T19:16:12Z",
    "tags": {
     "alt_name": "Ponte Friedrich Bayer",
     "bridge": "yes",
     "foot": "yes",
     "highway": "cycleway",
     "layer": "2",
     "name": "Ciclopassarela Friedrich Bayer",
     "oneway": "no",
     "segregated": "yes",
     "surface": "concrete",
     "video": "https://www.youtube.com/watch?v=zrlktxHRauI"
    }
   },
   "geometry": {
    "type": "LineString",
    "coordinates": [
     [
      -46.7218755,
      -23.6576127
     ],
     [
      -46.7221079,
      -23.657387
     ]
    ]
   }
  },
  {
   "type": "Feature",
   "id": "way/1025002474",
   "properties": {
    "way": 1025002474,
    "role": "west",
    "length_m": 21,
    "edited_at": "2022-01-26T20:50:50Z",
    "tags": {
     "access": "yes",
     "highway": "steps",
     "name": "Acesso à Ciclovia do Rio Pinheiros (Margem Oeste)",
     "surface": "metal",
     "tactile_paving": "no"
    }
   },
   "geometry": {
    "type": "LineString",
    "coordinates": [
     [
      -46.6918402,
      -23.586829
     ],
     [
      -46.6918301,
      -23.5869581
     ],
     [
      -46.6918923,
      -23.586961
     ]
    ]
   }
  },
  {
   "type": "Feature",
   "id": "way/1052651725",
   "properties": {
    "way": 1052651725,
    "role": "west",
    "length_m": 1600,
    "edited_at": "2025-03-20T02:03:04Z",
    "tags": {
     "bicycle": "designated",
     "foot": "yes",
     "highway": "cycleway",
     "horse": "no",
     "name": "Ciclovia Parque Bruno Covas",
     "oneway": "no",
     "surface": "paved"
    }
   },
   "geometry": {
    "type": "LineString",
    "coordinates": [
     [
      -46.7187707,
      -23.6329928
     ],
     [
      -46.7188666,
      -23.6331017
     ],
     [
      -46.719012,
      -23.6333681
     ],
     [
      -46.7190403,
      -23.6334641
     ],
     [
      -46.7192328,
      -23.6336232
     ],
     [
      -46.7202173,
      -23.6346799
     ],
     [
      -46.7224693,
      -23.6370552
     ],
     [
      -46.7242722,
      -23.6390364
     ],
     [
      -46.7246363,
      -23.6392931
     ],
     [
      -46.724687,
      -23.6393303
     ],
     [
      -46.7247669,
      -23.6394154
     ],
     [
      -46.7250768,
      -23.6398714
     ],
     [
      -46.7259456,
      -23.6413784
     ],
     [
      -46.7260015,
      -23.6414393
     ],
     [
      -46.726059,
      -23.6414726
     ],
     [
      -46.7263789,
      -23.6415675
     ],
     [
      -46.7265574,
      -23.6416303
     ],
     [
      -46.7266251,
      -23.641674
     ],
     [
      -46.726668,
      -23.641744
     ],
     [
      -46.7268021,
      -23.6420733
     ],
     [
      -46.7268772,
      -23.6423781
     ],
     [
      -46.7269677,
      -23.6431188
     ],
     [
      -46.727013,
      -23.643431
     ],
     [
      -46.7270395,
      -23.64376
     ],
     [
      -46.727128,
      -23.6441826
     ],
     [
      -46.7271267,
      -23.6442502
     ],
     [
      -46.7271052,
      -23.644292
     ],
     [
      -46.7270714,
      -23.644315
     ],
     [
      -46.7270128,
      -23.6443267
     ],
     [
      -46.7268086,
      -23.6443512
     ]
    ]
   }
  },
  {
   "type": "Feature",
   "id": "way/1104456716",
   "properties": {
    "way": 1104456716,
    "role": "trunk",
    "length_m": 7470,
    "edited_at": "2025-06-12T19:58:21Z",
    "tags": {
     "bicycle": "designated",
     "bicycle:conditional": "yes @ (05:30-18:30)",
     "cyclability": "good",
     "foot": "yes",
     "highway": "cycleway",
     "name": "Ciclovia do Rio Pinheiros",
     "oneway": "no",
     "segregated": "yes",
     "source": "Shapefile CET 2021",
     "surface": "paved",
     "temporary:access": "no @ (2021-08-18 - 2021-12-31)"
    }
   },
   "geometry": {
    "type": "LineString",
    "coordinates": [
     [
      -46.7260738,
      -23.64459
     ],
     [
      -46.7261125,
      -23.6447384
     ],
     [
      -46.7261312,
      -23.6449676
     ],
     [
      -46.7261259,
      -23.6450983
     ],
     [
      -46.7261134,
      -23.6452553
     ],
     [
      -46.7259582,
      -23.6463644
     ],
     [
      -46.7257707,
      -23.6473572
     ],
     [
      -46.7256451,
      -23.6478948
     ],
     [
      -46.7255748,
      -23.6481761
     ],
     [
      -46.725409,
      -23.6486584
     ],
     [
      -46.7251728,
      -23.6492111
     ],
     [
      -46.7249417,
      -23.6496482
     ],
     [
      -46.7246503,
      -23.6500853
     ],
     [
      -46.7242635,
      -23.6505475
     ],
     [
      -46.7230577,
      -23.6519492
     ],
     [
      -46.7210029,
      -23.6543561
     ],
     [
      -46.7201881,
      -23.6552989
     ],
     [
      -46.7198706,
      -23.6556611
     ],
     [
      -46.7197821,
      -23.6558127
     ],
     [
      -46.7197209,
      -23.6559968
     ],
     [
      -46.7191448,
      -23.6565717
     ],
     [
      -46.7190602,
      -23.6566369
     ],
     [
      -46.7185055,
      -23.6571097
     ],
     [
      -46.718061,
      -23.65742
     ],
     [
      -46.7162783,
      -23.6585177
     ],
     [
      -46.7146338,
      -23.659553
     ],
     [
      -46.7138427,
      -23.6601615
     ],
     [
      -46.7134097,
      -23.6605286
     ],
     [
      -46.7130187,
      -23.6609007
     ],
     [
      -46.7123254,
      -23.6616039
     ],
     [
      -46.7118597,
      -23.6621366
     ],
     [
      -46.7115507,
      -23.6625373
     ],
     [
      -46.7113809,
      -23.6628256
     ],
     [
      -46.71125,
      -23.6630775
     ],
     [
      -46.7109795,
      -23.6636505
     ],
     [
      -46.710775,
      -23.6640516
     ],
     [
      -46.7103952,
      -23.6647201
     ],
     [
      -46.7103198,
      -23.6648353
     ],
     [
      -46.7098955,
      -23.6654835
     ],
     [
      -46.7095261,
      -23.6659774
     ],
     [
      -46.7091028,
      -23.6665287
     ],
     [
      -46.7086317,
      -23.6673287
     ],
     [
      -46.7075211,
      -23.6691395
     ],
     [
      -46.7066846,
      -23.6705565
     ],
     [
      -46.7057953,
      -23.6721287
     ],
     [
      -46.7052092,
      -23.6731082
     ],
     [
      -46.7043025,
      -23.6746332
     ],
     [
      -46.7027952,
      -23.6771539
     ],
     [
      -46.7025832,
      -23.6774633
     ],
     [
      -46.702399,
      -23.6776657
     ],
     [
      -46.7017895,
      -23.6783742
     ],
     [
      -46.7017493,
      -23.6784151
     ],
     [
      -46.7001779,
      -23.680014
     ],
     [
      -46.6988555,
      -23.6814216
     ],
     [
      -46.698423,
      -23.6819238
     ],
     [
      -46.6980905,
      -23.6823774
     ],
     [
      -46.6971309,
      -23.6839458
     ],
     [
      -46.6961372,
      -23.6856905
     ],
     [
      -46.6959829,
      -23.6860767
     ],
     [
      -46.6958181,
      -23.6865231
     ],
     [
      -46.6956035,
      -23.6870758
     ],
     [
      -46.6952218,
      -23.6876911
     ],
     [
      -46.6947808,
      -23.6881613
     ],
     [
      -46.6942128,
      -23.6887614
     ],
     [
      -46.6938571,
      -23.6891806
     ],
     [
      -46.6938052,
      -23.6893877
     ],
     [
      -46.6932229,
      -23.6902798
     ],
     [
      -46.6899155,
      -23.6954624
     ],
     [
      -46.6888407,
      -23.6970371
     ],
     [
      -46.6882656,
      -23.6977231
     ],
     [
      -46.6877535,
      -23.6981727
     ],
     [
      -46.686939,
      -23.6988064
     ],
     [
      -46.6864859,
      -23.6990622
     ],
     [
      -46.6864172,
      -23.6990888
     ],
     [
      -46.6862924,
      -23.6991243
     ],
     [
      -46.685942,
      -23.6992773
     ]
    ]
   }
  },
  {
   "type": "Feature",
   "id": "way/1126024457",
   "properties": {
    "way": 1126024457,
    "role": "trunk",
    "length_m": 580,
    "edited_at": "2022-12-31T12:19:14Z",
    "tags": {
     "bicycle": "designated",
     "bicycle:conditional": "yes @ (05:30-18:30)",
     "cyclability": "good",
     "foot": "yes",
     "highway": "cycleway",
     "name": "Ciclovia do Rio Pinheiros",
     "oneway": "no",
     "segregated": "yes",
     "source": "Shapefile CET 2021",
     "surface": "paved",
     "temporary:access": "no @ (2021-08-18 - 2021-12-31)"
    }
   },
   "geometry": {
    "type": "LineString",
    "coordinates": [
     [
      -46.6915981,
      -23.5891588
     ],
     [
      -46.6916864,
      -23.589391
     ],
     [
      -46.6917188,
      -23.5894737
     ],
     [
      -46.691751,
      -23.5895757
     ],
     [
      -46.6918308,
      -23.5898745
     ],
     [
      -46.6919755,
      -23.5903297
     ],
     [
      -46.6921137,
      -23.5907179
     ],
     [
      -46.692368,
      -23.591316
     ],
     [
      -46.6925825,
      -23.5918998
     ],
     [
      -46.6926026,
      -23.59196
     ],
     [
      -46.6926187,
      -23.5920276
     ],
     [
      -46.6926456,
      -23.5921493
     ],
     [
      -46.692661,
      -23.5922175
     ],
     [
      -46.6926773,
      -23.5922761
     ],
     [
      -46.6928711,
      -23.5929043
     ],
     [
      -46.6930369,
      -23.5934319
     ],
     [
      -46.6931749,
      -23.5938319
     ],
     [
      -46.6931932,
      -23.5939543
     ],
     [
      -46.6931629,
      -23.5939937
     ],
     [
      -46.6931247,
      -23.5939982
     ],
     [
      -46.693088,
      -23.5939921
     ],
     [
      -46.6930588,
      -23.5940066
     ],
     [
      -46.6930147,
      -23.5940275
     ]
    ]
   }
  },
  {
   "type": "Feature",
   "id": "way/1126024463",
   "properties": {
    "way": 1126024463,
    "role": "trunk",
    "length_m": 6923,
    "edited_at": "2026-09-02T01:35:32Z",
    "tags": {
     "bicycle": "designated",
     "bicycle:conditional": "yes @ (05:30-18:30)",
     "cyclability": "good",
     "foot": "yes",
     "highway": "cycleway",
     "lit": "yes",
     "name": "Ciclovia do Rio Pinheiros",
     "oneway": "no",
     "segregated": "yes",
     "source": "Shapefile CET 2021",
     "surface": "paved",
     "temporary:access": "no @ (2021-08-18 - 2021-12-31)"
    }
   },
   "geometry": {
    "type": "LineString",
    "coordinates": [
     [
      -46.7342413,
      -23.5456989
     ],
     [
      -46.7338688,
      -23.5459109
     ],
     [
      -46.7335212,
      -23.5461597
     ],
     [
      -46.7330022,
      -23.546473
     ],
     [
      -46.7328383,
      -23.5466076
     ],
     [
      -46.7326581,
      -23.5467683
     ],
     [
      -46.7324225,
      -23.5469798
     ],
     [
      -46.7321239,
      -23.5472286
     ],
     [
      -46.731679,
      -23.5475412
     ],
     [
      -46.7306756,
      -23.5482768
     ],
     [
      -46.7298093,
      -23.5489333
     ],
     [
      -46.7220202,
      -23.5527788
     ],
     [
      -46.7135444,
      -23.5568898
     ],
     [
      -46.7119686,
      -23.5577599
     ],
     [
      -46.7116511,
      -23.5579048
     ],
     [
      -46.71105,
      -23.5582795
     ],
     [
      -46.7107439,
      -23.5584428
     ],
     [
      -46.710485,
      -23.5585662
     ],
     [
      -46.7100386,
      -23.5587183
     ],
     [
      -46.7095532,
      -23.5589452
     ],
     [
      -46.7093457,
      -23.5590244
     ],
     [
      -46.7088592,
      -23.5592199
     ],
     [
      -46.7083686,
      -23.5594572
     ],
     [
      -46.7079547,
      -23.559673
     ],
     [
      -46.7074643,
      -23.5599608
     ],
     [
      -46.7070513,
      -23.5602402
     ],
     [
      -46.7067916,
      -23.5604415
     ],
     [
      -46.7064284,
      -23.5607655
     ],
     [
      -46.7056792,
      -23.5615193
     ],
     [
      -46.7052553,
      -23.5620405
     ],
     [
      -46.7049754,
      -23.5624551
     ],
     [
      -46.7046908,
      -23.5628868
     ],
     [
      -46.7044187,
      -23.5633549
     ],
     [
      -46.7042323,
      -23.5637831
     ],
     [
      -46.7039339,
      -23.5645082
     ],
     [
      -46.7036178,
      -23.5654055
     ],
     [
      -46.7034538,
      -23.5658455
     ],
     [
      -46.7031402,
      -23.5668143
     ],
     [
      -46.7030437,
      -23.5671125
     ],
     [
      -46.7029587,
      -23.5673606
     ],
     [
      -46.7027321,
      -23.5680838
     ],
     [
      -46.7026591,
      -23.5682357
     ],
     [
      -46.7025386,
      -23.5684159
     ],
     [
      -46.7024847,
      -23.5685502
     ],
     [
      -46.7024122,
      -23.5687833
     ],
     [
      -46.7023555,
      -23.5690093
     ],
     [
      -46.7022995,
      -23.5691506
     ],
     [
      -46.7022285,
      -23.5693017
     ],
     [
      -46.702092,
      -23.5695331
     ],
     [
      -46.7020617,
      -23.5695772
     ],
     [
      -46.7020272,
      -23.5696345
     ],
     [
      -46.7019453,
      -23.5698297
     ],
     [
      -46.701832,
      -23.5700984
     ],
     [
      -46.7016564,
      -23.5705409
     ],
     [
      -46.7016013,
      -23.5706948
     ],
     [
      -46.7014913,
      -23.5709451
     ],
     [
      -46.7012614,
      -23.5714645
     ],
     [
      -46.7011403,
      -23.5717043
     ],
     [
      -46.7006054,
      -23.5723578
     ],
     [
      -46.7002124,
      -23.5727208
     ],
     [
      -46.7000163,
      -23.5728735
     ],
     [
      -46.6993933,
      -23.5733006
     ],
     [
      -46.6987657,
      -23.5738045
     ],
     [
      -46.6973713,
      -23.5749805
     ],
     [
      -46.6967161,
      -23.5756901
     ],
     [
      -46.6964673,
      -23.576045
     ],
     [
      -46.6957324,
      -23.5771365
     ],
     [
      -46.69393,
      -23.5803126
     ],
     [
      -46.6929644,
      -23.581994
     ],
     [
      -46.692782,
      -23.5823578
     ],
     [
      -46.6921812,
      -23.5834591
     ],
     [
      -46.6917413,
      -23.5842162
     ],
     [
      -46.6913765,
      -23.5850815
     ],
     [
      -46.6913486,
      -23.5853186
     ],
     [
      -46.6912975,
      -23.5856908
     ],
     [
      -46.6912705,
      -23.5859842
     ],
     [
      -46.6911995,
      -23.5875655
     ],
     [
      -46.691198,
      -23.5877123
     ],
     [
      -46.6912052,
      -23.5878366
     ],
     [
      -46.691224,
      -23.588008
     ],
     [
      -46.6912484,
      -23.5881436
     ],
     [
      -46.6912823,
      -23.5882877
     ],
     [
      -46.6913155,
      -23.5884159
     ],
     [
      -46.6915981,
      -23.5891588
     ]
    ]
   }
  },
  {
   "type": "Feature",
   "id": "way/1126024464",
   "properties": {
    "way": 1126024464,
    "role": "access",
    "length_m": 139,
    "edited_at": "2022-12-31T12:19:14Z",
    "tags": {
     "bicycle": "designated",
     "foot": "designated",
     "highway": "cycleway",
     "name": "Ciclovia Rio Pinheiros",
     "oneway": "no",
     "segregated": "yes",
     "source": "Shapefile CET 2021",
     "surface": "concrete"
    }
   },
   "geometry": {
    "type": "LineString",
    "coordinates": [
     [
      -46.688781,
      -23.5859656
     ],
     [
      -46.6887943,
      -23.585938
     ],
     [
      -46.6888235,
      -23.5859186
     ],
     [
      -46.6888686,
      -23.5859121
     ],
     [
      -46.6889167,
      -23.5859031
     ],
     [
      -46.6889695,
      -23.5859202
     ],
     [
      -46.6890137,
      -23.5859575
     ],
     [
      -46.6891147,
      -23.5860222
     ],
     [
      -46.6892765,
      -23.5861845
     ],
     [
      -46.6893667,
      -23.5862689
     ],
     [
      -46.6894579,
      -23.5863508
     ],
     [
      -46.6896012,
      -23.5864805
     ],
     [
      -46.6896401,
      -23.5865186
     ],
     [
      -46.6896844,
      -23.5865608
     ],
     [
      -46.6897065,
      -23.5866013
     ],
     [
      -46.6897224,
      -23.5866419
     ],
     [
      -46.6897268,
      -23.5866848
     ]
    ]
   }
  },
  {
   "type": "Feature",
   "id": "way/1126024467",
   "properties": {
    "way": 1126024467,
    "role": "west",
    "length_m": 197,
    "edited_at": "2024-09-10T22:38:07Z",
    "tags": {
     "bicycle": "designated",
     "foot": "yes",
     "highway": "cycleway",
     "horse": "no",
     "name": "Ciclovia do Rio Pinheiros (Margem Oeste)",
     "oneway": "no",
     "surface": "paved"
    }
   },
   "geometry": {
    "type": "LineString",
    "coordinates": [
     [
      -46.6923379,
      -23.585241
     ],
     [
      -46.6922322,
      -23.5855344
     ],
     [
      -46.6921364,
      -23.5857919
     ],
     [
      -46.6920557,
      -23.5861179
     ],
     [
      -46.6919523,
      -23.5865884
     ],
     [
      -46.6918923,
      -23.586961
     ]
    ]
   }
  },
  {
   "type": "Feature",
   "id": "way/1126024470",
   "properties": {
    "way": 1126024470,
    "role": "west",
    "length_m": 1337,
    "edited_at": "2025-03-14T16:37:45Z",
    "tags": {
     "bicycle": "designated",
     "foot": "yes",
     "highway": "cycleway",
     "horse": "no",
     "name": "Ciclovia do Rio Pinheiros (Margem Oeste)",
     "oneway": "no",
     "surface": "paved"
    }
   },
   "geometry": {
    "type": "LineString",
    "coordinates": [
     [
      -46.7268086,
      -23.6443512
     ],
     [
      -46.7267308,
      -23.6443618
     ],
     [
      -46.7267018,
      -23.6443855
     ],
     [
      -46.7266852,
      -23.6444181
     ],
     [
      -46.7266609,
      -23.6445339
     ],
     [
      -46.7266679,
      -23.6446454
     ],
     [
      -46.7266882,
      -23.6448534
     ],
     [
      -46.7267706,
      -23.6453364
     ],
     [
      -46.7267839,
      -23.6454679
     ],
     [
      -46.7268931,
      -23.6464502
     ],
     [
      -46.726851,
      -23.6472433
     ],
     [
      -46.7267086,
      -23.6481756
     ],
     [
      -46.7264368,
      -23.6491184
     ],
     [
      -46.7260648,
      -23.6497717
     ],
     [
      -46.7259361,
      -23.6499979
     ],
     [
      -46.725928,
      -23.650037
     ],
     [
      -46.7258846,
      -23.6502156
     ],
     [
      -46.7258306,
      -23.6503078
     ],
     [
      -46.7256659,
      -23.6505383
     ],
     [
      -46.7250895,
      -23.65124
     ],
     [
      -46.7243809,
      -23.6521388
     ],
     [
      -46.7240614,
      -23.6525344
     ],
     [
      -46.7232968,
      -23.6533707
     ],
     [
      -46.7222206,
      -23.6546865
     ],
     [
      -46.7220012,
      -23.6549225
     ]
    ]
   }
  },
  {
   "type": "Feature",
   "id": "way/1367365761",
   "properties": {
    "way": 1367365761,
    "role": "access",
    "length_m": 9,
    "edited_at": "2025-03-14T16:37:45Z",
    "tags": {
     "highway": "steps",
     "name": "Acesso para a Ciclovia Rio Pinheiros (CPTM Socorro)",
     "surface": "metal"
    }
   },
   "geometry": {
    "type": "LineString",
    "coordinates": [
     [
      -46.7102636,
      -23.6648884
     ],
     [
      -46.7103046,
      -23.6648293
     ],
     [
      -46.7103198,
      -23.6648353
     ]
    ]
   }
  }
 ]
}
